HAWK-7B                 
1 56193U 23054R   26198.24407738  .00002938  00000+0  11141-3 0  9991
2 56193  97.2684  83.0916 0001100  11.8899 348.2367 15.27643443181616
HAWK-7C                 
1 56200U 23054Y   26198.11294580  .00002919  00000+0  11070-3 0  9995
2 56200  97.2659  83.7235 0000733 345.5508  14.5710 15.27645306181595
HAWK-8A                 
1 59443U 24066B   26198.16387750  .00001269  00000+0  12106-3 0  9996
2 59443  45.5961 121.6369 0003098 228.5664 131.4952 14.99291738124339
HAWK-8B                 
1 59445U 24066D   26198.23097902  .00000292  00000+0  42270-4 0  9994
2 59445  45.6178 123.2737 0003315 231.8732 128.1850 14.99293112124332
HAWK-9A                 
1 59446U 24066E   26198.18727414  .00000611  00000+0  68067-4 0  9994
2 59446  45.6095 122.1628 0002951 214.4803 145.5887 14.99218650124336
HAWK-9C                 
1 59448U 24066G   26198.18754125  .00000532  00000+0  61714-4 0  9999
2 59448  45.6065 121.2599 0002786 199.1529 160.9248 14.99217168124337
HAWK-8C                 
1 59449U 24066H   26198.23044525  .00000512  00000+0  59961-4 0  9991
2 59449  45.6074 122.2918 0002912 237.4539 122.6061 14.99292689124331
HAWK-9B                 
1 59450U 24066J   26198.25421630  .00000602  00000+0  67398-4 0  9994
2 59450  45.6121 122.7534 0003083 195.5345 164.5442 14.99213694124342
HAWK-10A                
1 60540U 24149CA  26198.19043546  .00000171  00000+0  20044-4 0  9995
2 60540  97.6886 273.5864 0002922 355.0180   5.1012 14.96593681104470
HAWK-10B                
1 60545U 24149CF  26197.78914008  .00000202  00000+0  22717-4 0  9998
2 60545  97.6806 272.5171 0005276   8.7714 351.3599 14.96592404104419
HAWK-10C                
1 60575U 24149DM  26197.78947930  .00000253  00000+0  27238-4 0  9990
2 60575  97.6723 271.8260 0002517 342.3349  17.7784 14.96591097104413
HAWK-11B                
1 62379U 24247C   26198.19350790  .00004019  00000+0  14303-3 0  9993
2 62379  45.0151 125.2230 0002629  34.5393 325.5662 15.30685124 87601
HAWK-11C                
1 62381U 24247E   26198.19305985  .00004022  00000+0  14313-3 0  9997
2 62381  45.0042 124.5538 0003620  20.6119 339.4911 15.30681096 87605
HAWK-11A                
1 62382U 24247F   26198.19315227  .00004096  00000+0  14557-3 0  9999
2 62382  44.9935 123.8798 0003088  19.9615 340.1389 15.30677832 87606
HAWK-12C                
1 64621U 25138A   26197.96304206  .00002245  00000+0  11213-3 0  9996
2 64621  97.4352 199.9055 0015159  45.7192 314.5283 15.18413819 58389
HAWK-12B                
1 64622U 25138B   26197.96321629  .00002259  00000+0  11287-3 0  9991
2 64622  97.4473 200.6018 0014018  41.8659 318.3644 15.18413251 58384
