{"fetched_at":"2026-07-17T17:38:17.461Z","source":"https://celestrak.org/NORAD/elements/gp.php?NAME=HAWK&FORMAT=JSON","constellation":"hawkeye-360","records":[{"OBJECT_NAME":"HAWK-7B","OBJECT_ID":"2023-054R","EPOCH":"2026-07-17T05:51:28.285632","CLASSIFICATION_TYPE":"U","MEAN_MOTION":15.27643443,"ECCENTRICITY":0.00011005,"INCLINATION":97.2684,"RA_OF_ASC_NODE":83.0916,"ARG_OF_PERICENTER":11.8899,"MEAN_ANOMALY":348.2367,"EPHEMERIS_TYPE":0,"NORAD_CAT_ID":56193,"ELEMENT_SET_NO":999,"REV_AT_EPOCH":18161,"BSTAR":0.00011140615,"MEAN_MOTION_DOT":0.00002938,"MEAN_MOTION_DDOT":0},{"OBJECT_NAME":"HAWK-7C","OBJECT_ID":"2023-054Y","EPOCH":"2026-07-17T02:42:38.517120","CLASSIFICATION_TYPE":"U","MEAN_MOTION":15.27645306,"ECCENTRICITY":0.0000733,"INCLINATION":97.2659,"RA_OF_ASC_NODE":83.7235,"ARG_OF_PERICENTER":345.5508,"MEAN_ANOMALY":14.571,"EPHEMERIS_TYPE":0,"NORAD_CAT_ID":56200,"ELEMENT_SET_NO":999,"REV_AT_EPOCH":18159,"BSTAR":0.00011070297,"MEAN_MOTION_DOT":0.00002919,"MEAN_MOTION_DDOT":0},{"OBJECT_NAME":"HAWK-8A","OBJECT_ID":"2024-066B","EPOCH":"2026-07-17T03:55:59.016000","CLASSIFICATION_TYPE":"U","MEAN_MOTION":14.99291738,"ECCENTRICITY":0.00030981,"INCLINATION":45.5961,"RA_OF_ASC_NODE":121.6369,"ARG_OF_PERICENTER":228.5664,"MEAN_ANOMALY":131.4952,"EPHEMERIS_TYPE":0,"NORAD_CAT_ID":59443,"ELEMENT_SET_NO":999,"REV_AT_EPOCH":12433,"BSTAR":0.00012105505,"MEAN_MOTION_DOT":0.00001269,"MEAN_MOTION_DDOT":0},{"OBJECT_NAME":"HAWK-8B","OBJECT_ID":"2024-066D","EPOCH":"2026-07-17T05:32:36.587328","CLASSIFICATION_TYPE":"U","MEAN_MOTION":14.99293112,"ECCENTRICITY":0.00033154,"INCLINATION":45.6178,"RA_OF_ASC_NODE":123.2737,"ARG_OF_PERICENTER":231.8732,"MEAN_ANOMALY":128.185,"EPHEMERIS_TYPE":0,"NORAD_CAT_ID":59445,"ELEMENT_SET_NO":999,"REV_AT_EPOCH":12433,"BSTAR":0.000042270242,"MEAN_MOTION_DOT":0.00000292,"MEAN_MOTION_DDOT":0},{"OBJECT_NAME":"HAWK-9A","OBJECT_ID":"2024-066E","EPOCH":"2026-07-17T04:29:40.485696","CLASSIFICATION_TYPE":"U","MEAN_MOTION":14.9921865,"ECCENTRICITY":0.00029518,"INCLINATION":45.6095,"RA_OF_ASC_NODE":122.1628,"ARG_OF_PERICENTER":214.4803,"MEAN_ANOMALY":145.5887,"EPHEMERIS_TYPE":0,"NORAD_CAT_ID":59446,"ELEMENT_SET_NO":999,"REV_AT_EPOCH":12433,"BSTAR":0.000068067074,"MEAN_MOTION_DOT":0.00000611,"MEAN_MOTION_DDOT":0},{"OBJECT_NAME":"HAWK-9C","OBJECT_ID":"2024-066G","EPOCH":"2026-07-17T04:30:03.564000","CLASSIFICATION_TYPE":"U","MEAN_MOTION":14.99217168,"ECCENTRICITY":0.00027867,"INCLINATION":45.6065,"RA_OF_ASC_NODE":121.2599,"ARG_OF_PERICENTER":199.1529,"MEAN_ANOMALY":160.9248,"EPHEMERIS_TYPE":0,"NORAD_CAT_ID":59448,"ELEMENT_SET_NO":999,"REV_AT_EPOCH":12433,"BSTAR":0.000061713916,"MEAN_MOTION_DOT":0.00000532,"MEAN_MOTION_DDOT":0},{"OBJECT_NAME":"HAWK-8C","OBJECT_ID":"2024-066H","EPOCH":"2026-07-17T05:31:50.469600","CLASSIFICATION_TYPE":"U","MEAN_MOTION":14.99292689,"ECCENTRICITY":0.00029125,"INCLINATION":45.6074,"RA_OF_ASC_NODE":122.2918,"ARG_OF_PERICENTER":237.4539,"MEAN_ANOMALY":122.6061,"EPHEMERIS_TYPE":0,"NORAD_CAT_ID":59449,"ELEMENT_SET_NO":999,"REV_AT_EPOCH":12433,"BSTAR":0.000059961054,"MEAN_MOTION_DOT":0.00000512,"MEAN_MOTION_DDOT":0},{"OBJECT_NAME":"HAWK-9B","OBJECT_ID":"2024-066J","EPOCH":"2026-07-17T06:06:04.288320","CLASSIFICATION_TYPE":"U","MEAN_MOTION":14.99213694,"ECCENTRICITY":0.00030838,"INCLINATION":45.6121,"RA_OF_ASC_NODE":122.7534,"ARG_OF_PERICENTER":195.5345,"MEAN_ANOMALY":164.5442,"EPHEMERIS_TYPE":0,"NORAD_CAT_ID":59450,"ELEMENT_SET_NO":999,"REV_AT_EPOCH":12434,"BSTAR":0.00006739849,"MEAN_MOTION_DOT":0.00000602,"MEAN_MOTION_DDOT":0},{"OBJECT_NAME":"HAWK-10A","OBJECT_ID":"2024-149CA","EPOCH":"2026-07-17T04:34:13.623744","CLASSIFICATION_TYPE":"U","MEAN_MOTION":14.96593681,"ECCENTRICITY":0.00029227,"INCLINATION":97.6886,"RA_OF_ASC_NODE":273.5864,"ARG_OF_PERICENTER":355.018,"MEAN_ANOMALY":5.1012,"EPHEMERIS_TYPE":0,"NORAD_CAT_ID":60540,"ELEMENT_SET_NO":999,"REV_AT_EPOCH":10447,"BSTAR":0.000020043805,"MEAN_MOTION_DOT":0.00000171,"MEAN_MOTION_DDOT":0},{"OBJECT_NAME":"HAWK-10B","OBJECT_ID":"2024-149CF","EPOCH":"2026-07-16T18:56:21.702912","CLASSIFICATION_TYPE":"U","MEAN_MOTION":14.96592404,"ECCENTRICITY":0.00052765,"INCLINATION":97.6806,"RA_OF_ASC_NODE":272.5171,"ARG_OF_PERICENTER":8.7714,"MEAN_ANOMALY":351.3599,"EPHEMERIS_TYPE":0,"NORAD_CAT_ID":60545,"ELEMENT_SET_NO":999,"REV_AT_EPOCH":10441,"BSTAR":0.000022717118,"MEAN_MOTION_DOT":0.00000202,"MEAN_MOTION_DDOT":0},{"OBJECT_NAME":"HAWK-10C","OBJECT_ID":"2024-149DM","EPOCH":"2026-07-16T18:56:51.011520","CLASSIFICATION_TYPE":"U","MEAN_MOTION":14.96591097,"ECCENTRICITY":0.00025172,"INCLINATION":97.6723,"RA_OF_ASC_NODE":271.826,"ARG_OF_PERICENTER":342.3349,"MEAN_ANOMALY":17.7784,"EPHEMERIS_TYPE":0,"NORAD_CAT_ID":60575,"ELEMENT_SET_NO":999,"REV_AT_EPOCH":10441,"BSTAR":0.000027238307,"MEAN_MOTION_DOT":0.00000253,"MEAN_MOTION_DDOT":0},{"OBJECT_NAME":"HAWK-11B","OBJECT_ID":"2024-247C","EPOCH":"2026-07-17T04:38:39.082560","CLASSIFICATION_TYPE":"U","MEAN_MOTION":15.30685124,"ECCENTRICITY":0.00026299,"INCLINATION":45.0151,"RA_OF_ASC_NODE":125.223,"ARG_OF_PERICENTER":34.5393,"MEAN_ANOMALY":325.5662,"EPHEMERIS_TYPE":0,"NORAD_CAT_ID":62379,"ELEMENT_SET_NO":999,"REV_AT_EPOCH":8760,"BSTAR":0.00014302935,"MEAN_MOTION_DOT":0.00004019,"MEAN_MOTION_DDOT":0},{"OBJECT_NAME":"HAWK-11C","OBJECT_ID":"2024-247E","EPOCH":"2026-07-17T04:38:00.371040","CLASSIFICATION_TYPE":"U","MEAN_MOTION":15.30681096,"ECCENTRICITY":0.00036207,"INCLINATION":45.0042,"RA_OF_ASC_NODE":124.5538,"ARG_OF_PERICENTER":20.6119,"MEAN_ANOMALY":339.4911,"EPHEMERIS_TYPE":0,"NORAD_CAT_ID":62381,"ELEMENT_SET_NO":999,"REV_AT_EPOCH":8760,"BSTAR":0.00014313323,"MEAN_MOTION_DOT":0.00004022,"MEAN_MOTION_DDOT":0},{"OBJECT_NAME":"HAWK-11A","OBJECT_ID":"2024-247F","EPOCH":"2026-07-17T04:38:08.356128","CLASSIFICATION_TYPE":"U","MEAN_MOTION":15.30677832,"ECCENTRICITY":0.00030881,"INCLINATION":44.9935,"RA_OF_ASC_NODE":123.8798,"ARG_OF_PERICENTER":19.9615,"MEAN_ANOMALY":340.1389,"EPHEMERIS_TYPE":0,"NORAD_CAT_ID":62382,"ELEMENT_SET_NO":999,"REV_AT_EPOCH":8760,"BSTAR":0.00014557104,"MEAN_MOTION_DOT":0.00004096,"MEAN_MOTION_DDOT":0},{"OBJECT_NAME":"HAWK-12C","OBJECT_ID":"2025-138A","EPOCH":"2026-07-16T23:06:46.833984","CLASSIFICATION_TYPE":"U","MEAN_MOTION":15.18413819,"ECCENTRICITY":0.00151598,"INCLINATION":97.4352,"RA_OF_ASC_NODE":199.9055,"ARG_OF_PERICENTER":45.7192,"MEAN_ANOMALY":314.5283,"EPHEMERIS_TYPE":0,"NORAD_CAT_ID":64621,"ELEMENT_SET_NO":999,"REV_AT_EPOCH":5838,"BSTAR":0.00011212523,"MEAN_MOTION_DOT":0.00002245,"MEAN_MOTION_DDOT":0},{"OBJECT_NAME":"HAWK-12B","OBJECT_ID":"2025-138B","EPOCH":"2026-07-16T23:07:01.887456","CLASSIFICATION_TYPE":"U","MEAN_MOTION":15.18413251,"ECCENTRICITY":0.00140182,"INCLINATION":97.4473,"RA_OF_ASC_NODE":200.6018,"ARG_OF_PERICENTER":41.8659,"MEAN_ANOMALY":318.3644,"EPHEMERIS_TYPE":0,"NORAD_CAT_ID":64622,"ELEMENT_SET_NO":999,"REV_AT_EPOCH":5838,"BSTAR":0.00011286717,"MEAN_MOTION_DOT":0.00002259,"MEAN_MOTION_DDOT":0}]}
